CCSDS_OMM_VERS = 2.0
CREATION_DATE  = 
ORIGINATOR     = 

OBJECT_NAME    = STARLINK-36739
OBJECT_ID      = 2026-032F
CENTER_NAME    = EARTH
REF_FRAME      = TEME
TIME_SYSTEM    = UTC
MEAN_ELEMENT_THEORY = SGP/SGP4

EPOCH          = 2026-03-10T11:54:22.567392
MEAN_MOTION    = 15.75248851
ECCENTRICITY   = .0001296
INCLINATION    = 97.2852
RA_OF_ASC_NODE = 256.0737
ARG_OF_PERICENTER = 85.7480
MEAN_ANOMALY   = 274.3933

EPHEMERIS_TYPE = 0
CLASSIFICATION_TYPE = U
NORAD_CAT_ID   = 67802
ELEMENT_SET_NO = 999
REV_AT_EPOCH   = 491
BSTAR          = .10409E-2
MEAN_MOTION_DOT = .158441E-2
MEAN_MOTION_DDOT = 0

CCSDS_OMM_VERS = 2.0
CREATION_DATE  = 
ORIGINATOR     = 

OBJECT_NAME    = STARLINK-36768
OBJECT_ID      = 2026-032G
CENTER_NAME    = EARTH
REF_FRAME      = TEME
TIME_SYSTEM    = UTC
MEAN_ELEMENT_THEORY = SGP/SGP4

EPOCH          = 2026-03-10T12:12:11.129760
MEAN_MOTION    = 15.75239658
ECCENTRICITY   = .000147
INCLINATION    = 97.2850
RA_OF_ASC_NODE = 256.0560
ARG_OF_PERICENTER = 49.0691
MEAN_ANOMALY   = 311.0701

EPHEMERIS_TYPE = 0
CLASSIFICATION_TYPE = U
NORAD_CAT_ID   = 67803
ELEMENT_SET_NO = 999
REV_AT_EPOCH   = 491
BSTAR          = .16786E-2
MEAN_MOTION_DOT = .258522E-2
MEAN_MOTION_DDOT = 0

CCSDS_OMM_VERS = 2.0
CREATION_DATE  = 
ORIGINATOR     = 

OBJECT_NAME    = STARLINK-36792
OBJECT_ID      = 2026-032H
CENTER_NAME    = EARTH
REF_FRAME      = TEME
TIME_SYSTEM    = UTC
MEAN_ELEMENT_THEORY = SGP/SGP4

EPOCH          = 2026-03-10T12:15:42.738048
MEAN_MOTION    = 15.75300461
ECCENTRICITY   = .0001255
INCLINATION    = 97.2851
RA_OF_ASC_NODE = 256.0525
ARG_OF_PERICENTER = 79.3144
MEAN_ANOMALY   = 280.8262

EPHEMERIS_TYPE = 0
CLASSIFICATION_TYPE = U
NORAD_CAT_ID   = 67804
ELEMENT_SET_NO = 999
REV_AT_EPOCH   = 491
BSTAR          = .15983E-2
MEAN_MOTION_DOT = .246442E-2
MEAN_MOTION_DDOT = 0

CCSDS_OMM_VERS = 2.0
CREATION_DATE  = 
ORIGINATOR     = 

OBJECT_NAME    = STARLINK-36782
OBJECT_ID      = 2026-032J
CENTER_NAME    = EARTH
REF_FRAME      = TEME
TIME_SYSTEM    = UTC
MEAN_ELEMENT_THEORY = SGP/SGP4

EPOCH          = 2026-03-10T12:00:01.999296
MEAN_MOTION    = 15.75167976
ECCENTRICITY   = .0001259
INCLINATION    = 97.2845
RA_OF_ASC_NODE = 256.1027
ARG_OF_PERICENTER = 74.1544
MEAN_ANOMALY   = 4.2405

EPHEMERIS_TYPE = 0
CLASSIFICATION_TYPE = U
NORAD_CAT_ID   = 67805
ELEMENT_SET_NO = 999
REV_AT_EPOCH   = 491
BSTAR          = .23555E-3
MEAN_MOTION_DOT = .35115E-3
MEAN_MOTION_DDOT = 0

CCSDS_OMM_VERS = 2.0
CREATION_DATE  = 
ORIGINATOR     = 

OBJECT_NAME    = STARLINK-36389
OBJECT_ID      = 2026-032K
CENTER_NAME    = EARTH
REF_FRAME      = TEME
TIME_SYSTEM    = UTC
MEAN_ELEMENT_THEORY = SGP/SGP4

EPOCH          = 2026-03-10T11:59:27.557664
MEAN_MOTION    = 15.75235839
ECCENTRICITY   = .00013
INCLINATION    = 97.2846
RA_OF_ASC_NODE = 256.0674
ARG_OF_PERICENTER = 41.2234
MEAN_ANOMALY   = 318.9129

EPHEMERIS_TYPE = 0
CLASSIFICATION_TYPE = U
NORAD_CAT_ID   = 67806
ELEMENT_SET_NO = 999
REV_AT_EPOCH   = 491
BSTAR          = .911E-3
MEAN_MOTION_DOT = .138247E-2
MEAN_MOTION_DDOT = 0

CCSDS_OMM_VERS = 2.0
CREATION_DATE  = 
ORIGINATOR     = 

OBJECT_NAME    = STARLINK-36382
OBJECT_ID      = 2026-032L
CENTER_NAME    = EARTH
REF_FRAME      = TEME
TIME_SYSTEM    = UTC
MEAN_ELEMENT_THEORY = SGP/SGP4

EPOCH          = 2026-03-10T11:56:24.378432
MEAN_MOTION    = 15.75244773
ECCENTRICITY   = .0001214
INCLINATION    = 97.2848
RA_OF_ASC_NODE = 256.0694
ARG_OF_PERICENTER = 76.4777
MEAN_ANOMALY   = 283.6623

EPHEMERIS_TYPE = 0
CLASSIFICATION_TYPE = U
NORAD_CAT_ID   = 67807
ELEMENT_SET_NO = 999
REV_AT_EPOCH   = 491
BSTAR          = .84026E-3
MEAN_MOTION_DOT = .127387E-2
MEAN_MOTION_DDOT = 0

CCSDS_OMM_VERS = 2.0
CREATION_DATE  = 
ORIGINATOR     = 

OBJECT_NAME    = STARLINK-36811
OBJECT_ID      = 2026-032M
CENTER_NAME    = EARTH
REF_FRAME      = TEME
TIME_SYSTEM    = UTC
MEAN_ELEMENT_THEORY = SGP/SGP4

EPOCH          = 2026-03-10T11:42:10.689408
MEAN_MOTION    = 15.75269705
ECCENTRICITY   = .0001557
INCLINATION    = 97.2847
RA_OF_ASC_NODE = 256.0845
ARG_OF_PERICENTER = 74.1298
MEAN_ANOMALY   = 286.0139

EPHEMERIS_TYPE = 0
CLASSIFICATION_TYPE = U
NORAD_CAT_ID   = 67808
ELEMENT_SET_NO = 999
REV_AT_EPOCH   = 491
BSTAR          = .11674E-2
MEAN_MOTION_DOT = .178296E-2
MEAN_MOTION_DDOT = 0

CCSDS_OMM_VERS = 2.0
CREATION_DATE  = 
ORIGINATOR     = 

OBJECT_NAME    = STARLINK-36795
OBJECT_ID      = 2026-032N
CENTER_NAME    = EARTH
REF_FRAME      = TEME
TIME_SYSTEM    = UTC
MEAN_ELEMENT_THEORY = SGP/SGP4

EPOCH          = 2026-03-10T12:06:34.346016
MEAN_MOTION    = 15.75246139
ECCENTRICITY   = .0001509
INCLINATION    = 97.2848
RA_OF_ASC_NODE = 256.0602
ARG_OF_PERICENTER = 42.3399
MEAN_ANOMALY   = 317.7982

EPHEMERIS_TYPE = 0
CLASSIFICATION_TYPE = U
NORAD_CAT_ID   = 67809
ELEMENT_SET_NO = 999
REV_AT_EPOCH   = 491
BSTAR          = .10398E-2
MEAN_MOTION_DOT = .158262E-2
MEAN_MOTION_DDOT = 0

CCSDS_OMM_VERS = 2.0
CREATION_DATE  = 
ORIGINATOR     = 

OBJECT_NAME    = STARLINK-36807
OBJECT_ID      = 2026-032P
CENTER_NAME    = EARTH
REF_FRAME      = TEME
TIME_SYSTEM    = UTC
MEAN_ELEMENT_THEORY = SGP/SGP4

EPOCH          = 2026-03-10T11:43:42.087648
MEAN_MOTION    = 15.75265505
ECCENTRICITY   = .0001388
INCLINATION    = 97.2849
RA_OF_ASC_NODE = 256.0816
ARG_OF_PERICENTER = 65.1033
MEAN_ANOMALY   = 295.0377

EPHEMERIS_TYPE = 0
CLASSIFICATION_TYPE = U
NORAD_CAT_ID   = 67810
ELEMENT_SET_NO = 999
REV_AT_EPOCH   = 491
BSTAR          = .11106E-2
MEAN_MOTION_DOT = .169406E-2
MEAN_MOTION_DDOT = 0

CCSDS_OMM_VERS = 2.0
CREATION_DATE  = 
ORIGINATOR     = 

OBJECT_NAME    = STARLINK-36733
OBJECT_ID      = 2026-032Q
CENTER_NAME    = EARTH
REF_FRAME      = TEME
TIME_SYSTEM    = UTC
MEAN_ELEMENT_THEORY = SGP/SGP4

EPOCH          = 2026-03-10T12:00:01.999296
MEAN_MOTION    = 15.75174607
ECCENTRICITY   = .0001537
INCLINATION    = 97.2841
RA_OF_ASC_NODE = 256.1181
ARG_OF_PERICENTER = 83.6980
MEAN_ANOMALY   = 34.6898

EPHEMERIS_TYPE = 0
CLASSIFICATION_TYPE = U
NORAD_CAT_ID   = 67811
ELEMENT_SET_NO = 999
REV_AT_EPOCH   = 491
BSTAR          = .21593E-3
MEAN_MOTION_DOT = .32178E-3
MEAN_MOTION_DDOT = 0

CCSDS_OMM_VERS = 2.0
CREATION_DATE  = 
ORIGINATOR     = 

OBJECT_NAME    = STARLINK-36377
OBJECT_ID      = 2026-032R
CENTER_NAME    = EARTH
REF_FRAME      = TEME
TIME_SYSTEM    = UTC
MEAN_ELEMENT_THEORY = SGP/SGP4

EPOCH          = 2026-03-10T12:00:01.999296
MEAN_MOTION    = 15.75192274
ECCENTRICITY   = .0001296
INCLINATION    = 97.2843
RA_OF_ASC_NODE = 256.1243
ARG_OF_PERICENTER = 66.8021
MEAN_ANOMALY   = 65.5879

EPHEMERIS_TYPE = 0
CLASSIFICATION_TYPE = U
NORAD_CAT_ID   = 67812
ELEMENT_SET_NO = 999
REV_AT_EPOCH   = 491
BSTAR          = -.11638E-3
MEAN_MOTION_DOT = -.17454E-3
MEAN_MOTION_DDOT = 0

CCSDS_OMM_VERS = 2.0
CREATION_DATE  = 
ORIGINATOR     = 

OBJECT_NAME    = STARLINK-36732
OBJECT_ID      = 2026-032S
CENTER_NAME    = EARTH
REF_FRAME      = TEME
TIME_SYSTEM    = UTC
MEAN_ELEMENT_THEORY = SGP/SGP4

EPOCH          = 2026-03-10T11:33:32.376672
MEAN_MOTION    = 15.75262680
ECCENTRICITY   = .0001574
INCLINATION    = 97.2847
RA_OF_ASC_NODE = 256.0899
ARG_OF_PERICENTER = 85.1278
MEAN_ANOMALY   = 275.0167

EPHEMERIS_TYPE = 0
CLASSIFICATION_TYPE = U
NORAD_CAT_ID   = 67813
ELEMENT_SET_NO = 999
REV_AT_EPOCH   = 491
BSTAR          = .10693E-2
MEAN_MOTION_DOT = .162951E-2
MEAN_MOTION_DDOT = 0

