STARLINK-36739          
1 67802U 26032F   26069.49609453  .00158441  00000+0  10409-2 0  9997
2 67802  97.2852 256.0737 0001296  85.7480 274.3933 15.75248851  4919
STARLINK-36768          
1 67803U 26032G   26069.50846215  .00258522  00000+0  16786-2 0  9994
2 67803  97.2850 256.0560 0001470  49.0691 311.0701 15.75239658  4910
STARLINK-36792          
1 67804U 26032H   26069.51091132  .00246442  00000+0  15983-2 0  9992
2 67804  97.2851 256.0525 0001255  79.3144 280.8262 15.75300461  4919
STARLINK-36782          
1 67805U 26032J   26069.50002314  .00035115  00000+0  23555-3 0  9994
2 67805  97.2845 256.1027 0001259  74.1544   4.2405 15.75167976  4911
STARLINK-36389          
1 67806U 26032K   26069.49962451  .00138247  00000+0  91100-3 0  9991
2 67806  97.2846 256.0674 0001300  41.2234 318.9129 15.75235839  4910
STARLINK-36382          
1 67807U 26032L   26069.49750438  .00127387  00000+0  84026-3 0  9994
2 67807  97.2848 256.0694 0001214  76.4777 283.6623 15.75244773  4915
STARLINK-36811          
1 67808U 26032M   26069.48762372  .00178296  00000+0  11674-2 0  9997
2 67808  97.2847 256.0845 0001557  74.1298 286.0139 15.75269705  4917
STARLINK-36795          
1 67809U 26032N   26069.50456419  .00158262  00000+0  10398-2 0  9996
2 67809  97.2848 256.0602 0001509  42.3399 317.7982 15.75246139  4910
STARLINK-36807          
1 67810U 26032P   26069.48868157  .00169406  00000+0  11106-2 0  9991
2 67810  97.2849 256.0816 0001388  65.1033 295.0377 15.75265505  4917
STARLINK-36733          
1 67811U 26032Q   26069.50002314  .00032178  00000+0  21593-3 0  9997
2 67811  97.2841 256.1181 0001537  83.6980  34.6898 15.75174607  4915
STARLINK-36377          
1 67812U 26032R   26069.50002314 -.00017454  00000+0 -11638-3 0  9999
2 67812  97.2843 256.1243 0001296  66.8021  65.5879 15.75192274  4910
STARLINK-36732          
1 67813U 26032S   26069.48162473  .00162951  00000+0  10693-2 0  9990
2 67813  97.2847 256.0899 0001574  85.1278 275.0167 15.75262680  4915
